{"type": "FeatureCollection", "features": [ {"type": "Feature", "properties": {"norad_id": 66595, "name": "STARLINK-35711", "group": "last-30-days", "lat": -1.1403162790043533, "lon": 106.32682802276256, "alt_km": 443.83956941159886, "timestamp": "2025-12-27T09:28:55.181781+00:00", "meta": {"OBJECT_NAME": "STARLINK-35711", "OBJECT_ID": "2025-270H", "EPOCH": "2025-12-26T14:49:09.295680", "MEAN_MOTION": 15.40706631, "ECCENTRICITY": 2.88e-05, "INCLINATION": 42.9982, "RA_OF_ASC_NODE": 112.0335, "ARG_OF_PERICENTER": 200.2134, "MEAN_ANOMALY": 159.8711, "EPHEMERIS_TYPE": 0, "CLASSIFICATION_TYPE": "U", "NORAD_CAT_ID": 66595, "ELEMENT_SET_NO": 999, "REV_AT_EPOCH": 660, "BSTAR": 0.0014088, "MEAN_MOTION_DOT": 0.00059014, "MEAN_MOTION_DDOT": 0}, "tle": {"line1": "1 66595U 25270H   25360.61746870  .00059014  00000+0  14088-2 0  9993", "line2": "2 66595  42.9982 112.0335 0000288 200.2134 159.8711 15.40706631  6609"}}, "geometry": {"type": "Point", "coordinates": [106.32682802276256, -1.1403162790043533]}}, {"type": "Feature", "properties": {"norad_id": 66596, "name": "STARLINK-35811", "group": "last-30-days", "lat": 36.05918966374196, "lon": 159.6633673863608, "alt_km": 438.47324780947474, "timestamp": "2025-12-27T09:28:55.181791+00:00", "meta": {"OBJECT_NAME": "STARLINK-35811", "OBJECT_ID": "2025-270J", "EPOCH": "2025-12-26T16:06:34.337664", "MEAN_MOTION": 15.40660741, "ECCENTRICITY": 8.218e-05, "INCLINATION": 42.9994, "RA_OF_ASC_NODE": 112.4481, "ARG_OF_PERICENTER": 285.2412, "MEAN_ANOMALY": 74.8354, "EPHEMERIS_TYPE": 0, "CLASSIFICATION_TYPE": "U", "NORAD_CAT_ID": 66596, "ELEMENT_SET_NO": 999, "REV_AT_EPOCH": 660, "BSTAR": 0.0016365049, "MEAN_MOTION_DOT": 0.00068584, "MEAN_MOTION_DDOT": 0}, "tle": {"line1": "1 66596U 25270J   25360.67123076  .00068584  00000+0  16365-2 0  9999", "line2": "2 66596  42.9994 112.4481 0000821 285.2412  74.8354 15.40660741  6604"}}, "geometry": {"type": "Point", "coordinates": [159.6633673863608, 36.05918966374196]}}, {"type": "Feature", "properties": {"norad_id": 66597, "name": "STARLINK-35820", "group": "last-30-days", "lat": 39.948196152546515, "lon": -135.83877661621892, "alt_km": 438.356663790335, "timestamp": "2025-12-27T09:28:55.181802+00:00", "meta": {"OBJECT_NAME": "STARLINK-35820", "OBJECT_ID": "2025-270K", "EPOCH": "2025-12-26T17:27:01.514304", "MEAN_MOTION": 15.40727442, "ECCENTRICITY": 0.00015706, "INCLINATION": 43.0019, "RA_OF_ASC_NODE": 112.0061, "ARG_OF_PERICENTER": 267.3667, "MEAN_ANOMALY": 92.701, "EPHEMERIS_TYPE": 0, "CLASSIFICATION_TYPE": "U", "NORAD_CAT_ID": 66597, "ELEMENT_SET_NO": 999, "REV_AT_EPOCH": 661, "BSTAR": 0.0015888312, "MEAN_MOTION_DOT": 0.00066709, "MEAN_MOTION_DDOT": 0}, "tle": {"line1": "1 66597U 25270K   25360.72710086  .00066709  00000+0  15888-2 0  9995", "line2": "2 66597  43.0019 112.0061 0001570 267.3667  92.7010 15.40727442  6611"}}, "geometry": {"type": "Point", "coordinates": [-135.83877661621892, 39.948196152546515]}}, {"type": "Feature", "properties": {"norad_id": 66598, "name": "STARLINK-35981", "group": "last-30-days", "lat": -11.895160062875956, "lon": -58.99746421790571, "alt_km": 444.49291965537213, "timestamp": "2025-12-27T09:28:55.181812+00:00", "meta": {"OBJECT_NAME": "STARLINK-35981", "OBJECT_ID": "2025-270L", "EPOCH": "2025-12-25T14:37:26.403168", "MEAN_MOTION": 15.4075353, "ECCENTRICITY": 0.0001255, "INCLINATION": 42.9985, "RA_OF_ASC_NODE": 118.2329, "ARG_OF_PERICENTER": 277.5792, "MEAN_ANOMALY": 82.4921, "EPHEMERIS_TYPE": 0, "CLASSIFICATION_TYPE": "U", "NORAD_CAT_ID": 66598, "ELEMENT_SET_NO": 999, "REV_AT_EPOCH": 618, "BSTAR": 0.0013375, "MEAN_MOTION_DOT": 0.00056078, "MEAN_MOTION_DDOT": 0}, "tle": {"line1": "1 66598U 25270L   25359.60933337  .00056078  00000+0  13375-2 0  9994", "line2": "2 66598  42.9985 118.2329 0001255 277.5792  82.4921 15.40753530  6185"}}, "geometry": {"type": "Point", "coordinates": [-58.99746421790571, -11.895160062875956]}}, {"type": "Feature", "properties": {"norad_id": 66599, "name": "STARLINK-35930", "group": "last-30-days", "lat": -17.732631397178025, "lon": 87.5433073245243, "alt_km": 444.747215858285, "timestamp": "2025-12-27T09:28:55.181822+00:00", "meta": {"OBJECT_NAME": "STARLINK-35930", "OBJECT_ID": "2025-270M", "EPOCH": "2025-12-26T14:55:36.156864", "MEAN_MOTION": 15.40718778, "ECCENTRICITY": 0.0001848, "INCLINATION": 43.0021, "RA_OF_ASC_NODE": 112.0674, "ARG_OF_PERICENTER": 277.375, "MEAN_ANOMALY": 82.6897, "EPHEMERIS_TYPE": 0, "CLASSIFICATION_TYPE": "U", "NORAD_CAT_ID": 66599, "ELEMENT_SET_NO": 999, "REV_AT_EPOCH": 649, "BSTAR": 0.0010666, "MEAN_MOTION_DOT": 0.0004454, "MEAN_MOTION_DDOT": 0}, "tle": {"line1": "1 66599U 25270M   25360.62194626  .00044540  00000+0  10666-2 0  9990", "line2": "2 66599  43.0021 112.0674 0001848 277.3750  82.6897 15.40718778  6497"}}, "geometry": {"type": "Point", "coordinates": [87.5433073245243, -17.732631397178025]}}, {"type": "Feature", "properties": {"norad_id": 66600, "name": "STARLINK-35980", "group": "last-30-days", "lat": -38.63582215255226, "lon": -13.103451142988307, "alt_km": 447.83392832741265, "timestamp": "2025-12-27T09:28:55.181833+00:00", "meta": {"OBJECT_NAME": "STARLINK-35980", "OBJECT_ID": "2025-270N", "EPOCH": "2025-12-27T00:38:19.315680", "MEAN_MOTION": 15.40710333, "ECCENTRICITY": 0.0001186, "INCLINATION": 42.9987, "RA_OF_ASC_NODE": 109.9494, "ARG_OF_PERICENTER": 46.2929, "MEAN_ANOMALY": 313.8025, "EPHEMERIS_TYPE": 0, "CLASSIFICATION_TYPE": "U", "NORAD_CAT_ID": 66600, "ELEMENT_SET_NO": 999, "REV_AT_EPOCH": 645, "BSTAR": 0.0014058, "MEAN_MOTION_DOT": 0.00058896, "MEAN_MOTION_DDOT": 0}, "tle": {"line1": "1 66600U 25270N   25361.02661245  .00058896  00000+0  14058-2 0  9992", "line2": "2 66600  42.9987 109.9494 0001186  46.2929 313.8025 15.40710333  6457"}}, "geometry": {"type": "Point", "coordinates": [-13.103451142988307, -38.63582215255226]}}, {"type": "Feature", "properties": {"norad_id": 66601, "name": "STARLINK-35978", "group": "last-30-days", "lat": 21.709752996105767, "lon": -97.22997922787019, "alt_km": 439.9342601331027, "timestamp": "2025-12-27T09:28:55.181843+00:00", "meta": {"OBJECT_NAME": "STARLINK-35978", "OBJECT_ID": "2025-270P", "EPOCH": "2025-12-26T14:10:38.424864", "MEAN_MOTION": 15.40750428, "ECCENTRICITY": 4.83e-05, "INCLINATION": 43.0003, "RA_OF_ASC_NODE": 112.7006, "ARG_OF_PERICENTER": 109.4058, "MEAN_ANOMALY": 250.6851, "EPHEMERIS_TYPE": 0, "CLASSIFICATION_TYPE": "U", "NORAD_CAT_ID": 66601, "ELEMENT_SET_NO": 999, "REV_AT_EPOCH": 632, "BSTAR": 0.0012989, "MEAN_MOTION_DOT": 0.00054433, "MEAN_MOTION_DDOT": 0}, "tle": {"line1": "1 66601U 25270P   25360.59072251  .00054433  00000+0  12989-2 0  9991", "line2": "2 66601  43.0003 112.7006 0000483 109.4058 250.6851 15.40750428  6324"}}, "geometry": {"type": "Point", "coordinates": [-97.22997922787019, 21.709752996105767]}}, {"type": "Feature", "properties": {"norad_id": 66602, "name": "STARLINK-36050", "group": "last-30-days", "lat": 40.51352255719201, "lon": 174.7342537658457, "alt_km": 437.4532530800443, "timestamp": "2025-12-27T09:28:55.181853+00:00", "meta": {"OBJECT_NAME": "STARLINK-36050", "OBJECT_ID": "2025-270Q", "EPOCH": "2025-12-26T16:03:21.386592", "MEAN_MOTION": 15.40750684, "ECCENTRICITY": 4.193e-05, "INCLINATION": 42.9995, "RA_OF_ASC_NODE": 112.4296, "ARG_OF_PERICENTER": 251.3253, "MEAN_ANOMALY": 108.7558, "EPHEMERIS_TYPE": 0, "CLASSIFICATION_TYPE": "U", "NORAD_CAT_ID": 66602, "ELEMENT_SET_NO": 999, "REV_AT_EPOCH": 639, "BSTAR": 0.0015286524, "MEAN_MOTION_DOT": 0.00064199, "MEAN_MOTION_DDOT": 0}, "tle": {"line1": "1 66602U 25270Q   25360.66899753  .00064199  00000+0  15287-2 0  9998", "line2": "2 66602  42.9995 112.4296 0000419 251.3253 108.7558 15.40750684  6392"}}, "geometry": {"type": "Point", "coordinates": [174.7342537658457, 40.51352255719201]}}, {"type": "Feature", "properties": {"norad_id": 66603, "name": "STARLINK-36048", "group": "last-30-days", "lat": -2.9637873478343937, "lon": -68.84103957454458, "alt_km": 442.7245780282419, "timestamp": "2025-12-27T09:28:55.181863+00:00", "meta": {"OBJECT_NAME": "STARLINK-36048", "OBJECT_ID": "2025-270R", "EPOCH": "2025-12-26T17:07:39.283104", "MEAN_MOTION": 15.40743551, "ECCENTRICITY": 0.00047753, "INCLINATION": 42.9999, "RA_OF_ASC_NODE": 111.9022, "ARG_OF_PERICENTER": 249.7133, "MEAN_ANOMALY": 110.3211, "EPHEMERIS_TYPE": 0, "CLASSIFICATION_TYPE": "U", "NORAD_CAT_ID": 66603, "ELEMENT_SET_NO": 999, "REV_AT_EPOCH": 640, "BSTAR": 0.0013488776, "MEAN_MOTION_DOT": 0.0005656, "MEAN_MOTION_DDOT": 0}, "tle": {"line1": "1 66603U 25270R   25360.71364911  .00056560  00000+0  13489-2 0  9993", "line2": "2 66603  42.9999 111.9022 0004775 249.7133 110.3211 15.40743551  6407"}}, "geometry": {"type": "Point", "coordinates": [-68.84103957454458, -2.9637873478343937]}}, {"type": "Feature", "properties": {"norad_id": 66604, "name": "STARLINK-35977", "group": "last-30-days", "lat": -19.341557148729926, "lon": -49.95781743645249, "alt_km": 445.84066840886317, "timestamp": "2025-12-27T09:28:55.181874+00:00", "meta": {"OBJECT_NAME": "STARLINK-35977", "OBJECT_ID": "2025-270S", "EPOCH": "2025-12-27T00:47:59.629920", "MEAN_MOTION": 15.40712146, "ECCENTRICITY": 3.88e-05, "INCLINATION": 43.0006, "RA_OF_ASC_NODE": 109.9998, "ARG_OF_PERICENTER": 315.8533, "MEAN_ANOMALY": 44.2292, "EPHEMERIS_TYPE": 0, "CLASSIFICATION_TYPE": "U", "NORAD_CAT_ID": 66604, "ELEMENT_SET_NO": 999, "REV_AT_EPOCH": 655, "BSTAR": 0.0016846, "MEAN_MOTION_DOT": 0.0007075, "MEAN_MOTION_DDOT": 0}, "tle": {"line1": "1 66604U 25270S   25361.03332905  .00070750  00000+0  16846-2 0  9995", "line2": "2 66604  43.0006 109.9998 0000388 315.8533  44.2292 15.40712146  6559"}}, "geometry": {"type": "Point", "coordinates": [-49.95781743645249, -19.341557148729926]}}]}